{
  "type": "FeatureCollection",
  "features": [
    {
      "type": "Feature",
      "properties": {
        "norad_id": 45344,
        "name": "BEIDOU-3 G2 (C60)",
        "group": "gnss",
        "lat": -0.05944595186454608,
        "lon": 42.09945078687531,
        "alt_km": 35784.928859485735,
        "timestamp": "2025-12-16T15:45:51.289308+00:00",
        "meta_object_name": "BEIDOU-3 G2 (C60)",
        "meta_object_id": "2020-017A",
        "meta_epoch": "2025-12-15T22:19:44.846688",
        "meta_mean_motion": 1.00273143,
        "meta_eccentricity": 0.00043871,
        "meta_inclination": 2.5031,
        "meta_ra_of_asc_node": 43.9298,
        "meta_arg_of_pericenter": 270.8917,
        "meta_mean_anomaly": 184.9901,
        "meta_ephemeris_type": 0,
        "meta_classification_type": "U",
        "meta_norad_cat_id": 45344,
        "meta_element_set_no": 999,
        "meta_rev_at_epoch": 2142,
        "meta_bstar": 0,
        "meta_mean_motion_dot": -1.2e-06,
        "meta_mean_motion_ddot": 0,
        "tle_line1": "1 45344U 20017A   25349.93038017 -.00000120  00000+0  00000+0 0  9996",
        "tle_line2": "2 45344   2.5031  43.9298 0004387 270.8917 184.9901  1.00273143 21426"
      },
      "geometry": {
        "type": "Point",
        "coordinates": [
          42.09945078687531,
          -0.05944595186454608
        ]
      }
    },
    {
      "type": "Feature",
      "properties": {
        "norad_id": 45358,
        "name": "COSMOS 2545 (760)",
        "group": "gnss",
        "lat": -17.59533149397668,
        "lon": -49.89894946057598,
        "alt_km": 19133.233936424887,
        "timestamp": "2025-12-16T15:45:51.289324+00:00",
        "meta_object_name": "COSMOS 2545 (760)",
        "meta_object_id": "2020-018A",
        "meta_epoch": "2025-12-14T19:19:41.135808",
        "meta_mean_motion": 2.13102428,
        "meta_eccentricity": 0.00117069,
        "meta_inclination": 64.4681,
        "meta_ra_of_asc_node": 318.8965,
        "meta_arg_of_pericenter": 249.0608,
        "meta_mean_anomaly": 110.81,
        "meta_ephemeris_type": 0,
        "meta_classification_type": "U",
        "meta_norad_cat_id": 45358,
        "meta_element_set_no": 999,
        "meta_rev_at_epoch": 4473,
        "meta_bstar": 0,
        "meta_mean_motion_dot": -6.9e-07,
        "meta_mean_motion_ddot": 0,
        "tle_line1": "1 45358U 20018A   25348.80533722 -.00000069  00000+0  00000+0 0  9992",
        "tle_line2": "2 45358  64.4681 318.8965 0011706 249.0608 110.8100  2.13102428 44732"
      },
      "geometry": {
        "type": "Point",
        "coordinates": [
          -49.89894946057598,
          -17.59533149397668
        ]
      }
    },
    {
      "type": "Feature",
      "properties": {
        "norad_id": 45807,
        "name": "BEIDOU-3 G3 (C61)",
        "group": "gnss",
        "lat": 0.23475301112015448,
        "lon": 72.63470887931088,
        "alt_km": 35771.60399037648,
        "timestamp": "2025-12-16T15:45:51.289338+00:00",
        "meta_object_name": "BEIDOU-3 G3 (C61)",
        "meta_object_id": "2020-040A",
        "meta_epoch": "2025-12-15T22:28:29.009568",
        "meta_mean_motion": 1.00272652,
        "meta_eccentricity": 0.00063409,
        "meta_inclination": 1.9989,
        "meta_ra_of_asc_node": 66.611,
        "meta_arg_of_pericenter": 308.2444,
        "meta_mean_anomaly": 157.6773,
        "meta_ephemeris_type": 0,
        "meta_classification_type": "U",
        "meta_norad_cat_id": 45807,
        "meta_element_set_no": 999,
        "meta_rev_at_epoch": 2023,
        "meta_bstar": 0,
        "meta_mean_motion_dot": -3.33e-06,
        "meta_mean_motion_ddot": 0,
        "tle_line1": "1 45807U 20040A   25349.93644687 -.00000333  00000+0  00000+0 0  9998",
        "tle_line2": "2 45807   1.9989  66.6110 0006340 308.2444 157.6773  1.00272652 20238"
      },
      "geometry": {
        "type": "Point",
        "coordinates": [
          72.63470887931088,
          0.23475301112015448
        ]
      }
    },
    {
      "type": "Feature",
      "properties": {
        "norad_id": 45854,
        "name": "GPS BIII-3  (PRN 23)",
        "group": "gnss",
        "lat": -49.9675275478903,
        "lon": -15.787837571170849,
        "alt_km": 20186.34177473345,
        "timestamp": "2025-12-16T15:45:51.289350+00:00",
        "meta_object_name": "GPS BIII-3  (PRN 23)",
        "meta_object_id": "2020-041A",
        "meta_epoch": "2025-12-15T00:47:17.642112",
        "meta_mean_motion": 2.00562009,
        "meta_eccentricity": 0.00605565,
        "meta_inclination": 56.5486,
        "meta_ra_of_asc_node": 36.096,
        "meta_arg_of_pericenter": 203.5023,
        "meta_mean_anomaly": 356.6699,
        "meta_ephemeris_type": 0,
        "meta_classification_type": "U",
        "meta_norad_cat_id": 45854,
        "meta_element_set_no": 999,
        "meta_rev_at_epoch": 4034,
        "meta_bstar": 0,
        "meta_mean_motion_dot": -9.1e-07,
        "meta_mean_motion_ddot": 0,
        "tle_line1": "1 45854U 20041A   25349.03284308 -.00000091  00000+0  00000+0 0  9993",
        "tle_line2": "2 45854  56.5486  36.0960 0060556 203.5023 356.6699  2.00562009 40342"
      },
      "geometry": {
        "type": "Point",
        "coordinates": [
          -15.787837571170849,
          -49.9675275478903
        ]
      }
    },
    {
      "type": "Feature",
      "properties": {
        "norad_id": 46114,
        "name": "GALAXY 30 (WAAS/PRN 135)",
        "group": "gnss",
        "lat": -0.015654063906289338,
        "lon": -163.0225551158776,
        "alt_km": 35782.417847234276,
        "timestamp": "2025-12-16T15:45:51.289362+00:00",
        "meta_object_name": "GALAXY 30 (WAAS/PRN 135)",
        "meta_object_id": "2020-056C",
        "meta_epoch": "2025-12-15T21:20:57.976224",
        "meta_mean_motion": 1.00271624,
        "meta_eccentricity": 0.00020781,
        "meta_inclination": 0.0181,
        "meta_ra_of_asc_node": 4.1804,
        "meta_arg_of_pericenter": 258.2613,
        "meta_mean_anomaly": 17.591,
        "meta_ephemeris_type": 0,
        "meta_classification_type": "U",
        "meta_norad_cat_id": 46114,
        "meta_element_set_no": 999,
        "meta_rev_at_epoch": 1945,
        "meta_bstar": 0,
        "meta_mean_motion_dot": 5.9e-07,
        "meta_mean_motion_ddot": 0,
        "tle_line1": "1 46114U 20056C   25349.88955991  .00000059  00000+0  00000+0 0  9998",
        "tle_line2": "2 46114   0.0181   4.1804 0002078 258.2613  17.5910  1.00271624 19454"
      },
      "geometry": {
        "type": "Point",
        "coordinates": [
          -163.0225551158776,
          -0.015654063906289338
        ]
      }
    },
    {
      "type": "Feature",
      "properties": {
        "norad_id": 46805,
        "name": "COSMOS 2547 (705K)",
        "group": "gnss",
        "lat": -14.462110876358718,
        "lon": 25.610005301187368,
        "alt_km": 19119.001728277817,
        "timestamp": "2025-12-16T15:45:51.289375+00:00",
        "meta_object_name": "COSMOS 2547 (705K)",
        "meta_object_id": "2020-075A",
        "meta_epoch": "2025-12-15T22:22:03.065088",
        "meta_mean_motion": 2.13100081,
        "meta_eccentricity": 0.00062311,
        "meta_inclination": 64.5961,
        "meta_ra_of_asc_node": 198.5898,
        "meta_arg_of_pericenter": 228.6409,
        "meta_mean_anomaly": 131.3861,
        "meta_ephemeris_type": 0,
        "meta_classification_type": "U",
        "meta_norad_cat_id": 46805,
        "meta_element_set_no": 999,
        "meta_rev_at_epoch": 4000,
        "meta_bstar": 0,
        "meta_mean_motion_dot": 1.08e-06,
        "meta_mean_motion_ddot": 0,
        "tle_line1": "1 46805U 20075A   25349.93197992  .00000108  00000+0  00000+0 0  9996",
        "tle_line2": "2 46805  64.5961 198.5898 0006231 228.6409 131.3861  2.13100081 40000"
      },
      "geometry": {
        "type": "Point",
        "coordinates": [
          25.610005301187368,
          -14.462110876358718
        ]
      }
    },
    {
      "type": "Feature",
      "properties": {
        "norad_id": 46826,
        "name": "GPS BIII-4  (PRN 14)",
        "group": "gnss",
        "lat": -53.6428231089253,
        "lon": 118.77944857825563,
        "alt_km": 20103.210687445884,
        "timestamp": "2025-12-16T15:45:51.289387+00:00",
        "meta_object_name": "GPS BIII-4  (PRN 14)",
        "meta_object_id": "2020-078A",
        "meta_epoch": "2025-12-15T00:45:28.777248",
        "meta_mean_motion": 2.00566873,
        "meta_eccentricity": 0.00647232,
        "meta_inclination": 54.0146,
        "meta_ra_of_asc_node": 218.2479,
        "meta_arg_of_pericenter": 203.3837,
        "meta_mean_anomaly": 326.9194,
        "meta_ephemeris_type": 0,
        "meta_classification_type": "U",
        "meta_norad_cat_id": 46826,
        "meta_element_set_no": 999,
        "meta_rev_at_epoch": 3781,
        "meta_bstar": 0,
        "meta_mean_motion_dot": 5.5e-07,
        "meta_mean_motion_ddot": 0,
        "tle_line1": "1 46826U 20078A   25349.03158307  .00000055  00000+0  00000+0 0  9991",
        "tle_line2": "2 46826  54.0146 218.2479 0064723 203.3837 326.9194  2.00566873 37819"
      },
      "geometry": {
        "type": "Point",
        "coordinates": [
          118.77944857825563,
          -53.6428231089253
        ]
      }
    }
  ]
}